ECHOSTAR 19             
1 41893U 16079A   21259.48020999 -.00000161  00000-0  00000-0 0  9997
2 41893   0.0126 138.4301 0002001  36.1083 256.8772  1.00271500 17304
JCSAT-15                
1 41903U 16082A   21259.52155140 -.00000374  00000-0  00000-0 0  9991
2 41903   0.0174 168.2003 0001461   0.0194 125.2984  1.00272624 17369
STAR ONE D1             
1 41904U 16082B   21259.48282654 -.00000233  00000-0  00000-0 0  9992
2 41904   0.0226 114.9671 0002039  42.7799 287.7054  1.00271092 17374
TJS-2                   
1 41911U 17001A   21259.51282958 -.00000029  00000-0  00000-0 0  9996
2 41911   0.3269 284.2371 0005787 258.2921  64.2365  1.00271672 17337
SBIRS GEO-4 (USA 273)   
1 41937U 17004A   21259.53951833  .00000107  00000-0  00000-0 0  9990
2 41937   2.8782 314.4809 0002631 212.7414 223.2983  1.00272201 17210
HISPASAT 36W-1          
1 41942U 17006A   21259.42064000 -.00000267  00000-0  00000-0 0  9995
2 41942   0.0129 343.9552 0001033 189.9553 297.1071  1.00270865 16847
TELKOM 3S               
1 41944U 17007A   21259.52312132 -.00000385  00000-0  00000-0 0  9992
2 41944   0.0143 221.5386 0002501 309.0488 131.4137  1.00269497 16745
INTELSAT 32E (IS-32E)   
1 41945U 17007B   21259.49093784 -.00000291  00000-0  00000-0 0  9994
2 41945   0.0190 152.9511 0000537 289.5929  46.6573  1.00269462 16848
ECHOSTAR 23             
1 42070U 17014A   21259.48605361 -.00000292  00000-0  00000-0 0  9992
2 42070   0.0187 146.4040 0002057  31.4703 284.8492  1.00270135 16544
WGS F9 (USA 275)        
1 42075U 17016A   21259.35365647 -.00000119  00000-0  00000-0 0  9993
2 42075   0.0179 108.8035 0000490  10.5662 351.4635  1.00269561 16515
SES-10                  
1 42432U 17017A   21259.41972837 -.00000294  00000-0  00000-0 0  9997
2 42432   0.0178 158.5398 0002942  17.6177 263.6167  1.00266466 16344
CHINASAT 16 (SJ-13)     
1 42662U 17018A   21259.61854750 -.00000375  00000-0  00000-0 0  9998
2 42662   0.0569  84.6883 0006313 137.6516 106.6328  1.00271327 16344
KOREASAT 7              
1 42691U 17023A   21259.52268524 -.00000385  00000-0  00000-0 0  9995
2 42691   0.0155 101.2173 0001598  92.4805 106.0792  1.00271363 15982
SGDC                    
1 42692U 17023B   21259.22076285 -.00000271  00000-0  00000-0 0  9998
2 42692   0.0135 149.9178 0002317  20.6639 189.4226  1.00269233 16029
GSAT-9                  
1 42695U 17024A   21259.53104928 -.00000309  00000-0  00000-0 0  9994
2 42695   0.0288  96.9351 0002449  74.5802 112.6970  1.00270585 15914
INMARSAT 5-F4           
1 42698U 17025A   21259.51082358  .00000053  00000-0  00000-0 0  9993
2 42698   0.0256 156.0272 0000268  97.6276 342.4050  1.00270582 15874
SES-15                  
1 42709U 17026A   21259.24466937  .00000038  00000-0  00000-0 0  9999
2 42709   0.0156 349.3712 0001095 179.6094 145.3690  1.00272689 16758
QZS-2 (MICHIBIKI-2)     
1 42738U 17028A   21258.88006203 -.00000154  00000-0  00000-0 0  9998
2 42738  42.2345 268.0423 0751213 270.1601 273.8742  1.00263286 15745
VIASAT-2                
1 42740U 17029A   21259.48561752 -.00000287  00000-0  00000-0 0  9991
2 42740   0.0287 257.3689 0000245 216.0165 347.1825  1.00271372 15782
EUTELSAT 172B           
1 42741U 17029B   21259.56272354 -.00000029  00000-0  00000-0 0  9992
2 42741   0.0180 190.0563 0000337 283.3389 256.9106  1.00270631 16323
GSAT-19                 
1 42747U 17031A   21259.22204431  .00000103  00000-0  00000-0 0  9997
2 42747   0.0250 146.1894 0005757 325.0211  11.9777  1.00270701 15741
ECHOSTAR 21             
1 42749U 17032A   21259.35396427  .00000043  00000-0  00000-0 0  9994
2 42749   4.5641 311.1636 0002451 205.4817 336.5524  1.00270033 15716
CHINASAT 9A (ZX 9A)     
1 42763U 17035A   21258.75870076 -.00000160  00000-0  00000-0 0  9994
2 42763   0.5242  96.5617 0003052 331.9312 291.5414  0.99777716 16245
BULGARIASAT-1           
1 42801U 17038A   21259.35952135 -.00000011  00000-0  00000-0 0  9999
2 42801   0.0197 225.1068 0002636 311.2241 310.5243  1.00272168 15437
HELLAS-SAT 3            
1 42814U 17040A   21259.50733485  .00000130  00000-0  00000-0 0  9999
2 42814   0.0695  25.3656 0001520  86.5559 105.3761  1.00271968 15423
GSAT-17                 
1 42815U 17040B   21259.53764546 -.00000281  00000-0  00000-0 0  9993
2 42815   0.0217 115.6810 0003614 127.0308  40.0455  1.00272081 15396
INTELSAT 35E (IS-35E)   
1 42818U 17041A   21259.42090166 -.00000260  00000-0  00000-0 0  9992
2 42818   0.0157 196.8256 0001918 347.7884 287.9987  1.00271495 15426
COSMOS 2520             
1 42907U 17046A   21257.57076483  .00000121  00000-0  00000+0 0  9990
2 42907   0.0206 138.3352 0000360 123.4731 342.4462  1.00269337 14974
TDRS 13                 
1 42915U 17047A   21259.06653436 -.00000119  00000-0  00000-0 0  9994
2 42915   4.8807 331.4723 0016459 119.3269 276.8500  1.00271455 14951
QZS-3 (MICHIBIKI-3)     
1 42917U 17048A   21259.52486568 -.00000371  00000-0  00000-0 0  9998
2 42917   0.0532 199.6972 0001745 338.4971 133.4928  1.00270549 14867
AMAZONAS 5              
1 42934U 17053A   21259.48736189 -.00000305  00000-0  00000-0 0  9992
2 42934   0.0453 326.5308 0001839 229.9830 273.5753  1.00271837 14698
ASIASAT 9               
1 42942U 17057A   21259.52390628 -.00000383  00000-0  00000-0 0  9990
2 42942   0.0037 166.1612 0002280 355.5253 144.7035  1.00270089 14541
INTELSAT 37E (IS-37E)   
1 42950U 17059A   21259.42421595 -.00000163  00000-0  00000-0 0  9994
2 42950   0.0170 163.8473 0002881  11.1593 315.3019  1.00271777 14673
BSAT-4A                 
1 42951U 17059B   21259.52146418 -.00000373  00000-0  00000-0 0  9997
2 42951   0.0596  10.8359 0001541 105.7364 176.6810  1.00271029 14406
QZS-4 (MICHIBIKI-4)     
1 42965U 17062A   21258.52330230 -.00000336  00000-0  00000-0 0  9991
2 42965  40.8172   5.6642 0747162 269.4231  47.3865  1.00280389 14400
SES-11 (ECHOSTAR 105)   
1 42967U 17063A   21259.47864007 -.00000111  00000-0  00000-0 0  9994
2 42967   0.0407 276.0350 0002519 264.0379 242.9258  1.00271709 14321
KOREASAT 5A             
1 42984U 17067A   21259.52216192 -.00000381  00000-0  00000-0 0  9998
2 42984   0.0162 147.7566 0001843  20.3851 128.6657  1.00269408 14144
ALCOMSAT 1              
1 43039U 17078A   21259.42282046 -.00000208  00000-0  00000-0 0  9990
2 43039   0.0233 192.1348 0002118 341.8570 309.0084  1.00270161 13890
SBIRS GEO-3 (USA 282)   
1 43162U 18009A   21259.38374672 -.00000313  00000-0  00000-0 0  9991
2 43162   4.0746 317.5030 0002660 208.6873 106.4927  1.00270722 13448
AL YAH 3                
1 43174U 18012A   21259.42377986 -.00000178  00000-0  00000-0 0  9993
2 43174   0.0220 248.2402 0002146 282.0997 317.7009  1.00271589 13461
SES-14                  
1 43175U 18012B   21259.49006565 -.00000301  00000-0  00000-0 0  9991
2 43175   0.0201 158.7317 0001287  11.8185 314.0250  1.00269435 13671
GOES 17                 
1 43226U 18022A   21259.44502656  .00000075  00000-0  00000-0 0  9993
2 43226   0.0582 294.4249 0000493 199.1641 245.0253  1.00271626 13016
HISPASAT 30W-6          
1 43228U 18023A   21259.42177384 -.00000238  00000-0  00000-0 0  9992
2 43228   0.0450  40.0023 0003148 103.3231 334.1256  1.00271548 13071
SUPERBIRD 8             
1 43271U 18033A   21259.46006259 -.00000115  00000-0  00000-0 0  9991
2 43271   0.0158 220.2745 0001101 325.4145 137.5570  1.00271662 12659
HYLAS 4                 
1 43272U 18033B   21259.42107611 -.00000256  00000-0  00000-0 0  9998
2 43272   0.0335 166.9548 0004616   7.2063 299.5012  1.00271177 12697
IRNSS-1I                
1 43286U 18035A   21259.15157205  .00000079  00000-0  00000-0 0  9991
2 43286  29.2732 101.8411 0019836 178.9960 184.1239  1.00271727 12685
USA 283                 
1 43339U 18036A   21259.59908977 -.00000340  00000-0  00000+0 0  9990
2 43339   0.0098 146.6413 0000394  59.6348 139.2636  1.00271529  1342
COSMOS 2526             
1 43432U 18037A   21259.52512734 -.00000367  00000-0  00000-0 0  9990
2 43432   0.0214 137.9188 0000391  26.8266 148.0533  1.00270894 12575
APSTAR 6C               
1 43450U 18041A   21259.52626117 -.00000341  00000-0  00000-0 0  9998
2 43450   0.0271 271.6461 0002205 281.9537 125.5120  1.00268077 12447
BANGABANDHUSAT-1        
1 43463U 18044A   21259.52329576 -.00000385  00000-0  00000-0 0  9992
2 43463   0.0151 164.3461 0002722  13.2884 125.5232  1.00269058 12311
SES-12                  
1 43488U 18049A   21259.53452109 -.00000292  00000-0  00000-0 0  9991
2 43488   0.0285  75.7412 0001534 151.8621  55.5197  1.00270896 12038
FENGYUN 2H              
1 43491U 18050A   21259.53799269 -.00000148  00000-0  00000-0 0  9998
2 43491   0.4610 106.1424 0004623  40.6657 121.5620  1.00267736 12041
BEIDOU IGSO-7           
1 43539U 18057A   21259.48426959 -.00000181  00000-0  00000-0 0  9992
2 43539  55.0645 178.1437 0041316 224.3885 238.6376  1.00294181 11765
TELSTAR 19V             
1 43562U 18059A   21259.48701301 -.00000302  00000-0  00000-0 0  9992
2 43562   0.0099 171.2363 0003229 342.2851 314.4394  1.00270368 11764
TELKOM 4 (MERAH PUTIH)  
1 43587U 18064A   21259.52111530 -.00000367  00000-0  00000-0 0  9990
2 43587   0.0120 220.6158 0001613 319.9074 110.7675  1.00271726 11476
TELSTAR 18V (APSTAR 5C) 
1 43611U 18069A   21259.52704615 -.00000317  00000-0  00000-0 0  9990
2 43611   0.0265 154.5053 0002318  18.8474 150.0640  1.00269636 11235
AZERSPACE 2 (IS-38)     
1 43632U 18074A   21259.50855590  .00000114  00000-0  00000-0 0  9990
2 43632   0.0175 147.5532 0001601  25.1797  51.1328  1.00271929 11079
HORIZONS 3E             
1 43633U 18074B   21259.56044082 -.00000053  00000-0  00000-0 0  9996
2 43633   0.0410 339.5918 0000595 315.6624  71.2176  1.00271530 10947
AEHF-4 (USA 288)        
1 43651U 18079A   21259.48369873 -.00000293  00000-0  00000-0 0  9996
2 43651   2.9736 313.2283 0000467 192.6816 304.3981  1.00828207 10906
